<presetWeatherSet
        xmlns="https://github.com/Engin1980/J-ATC-Simulator/weather"
>
  <meta>
    <title>Afternoo thunderstorm - weather from 2018-09-23</title>
    <author>Marek Vajgl</author>
    <description>Downloaded using </description>
  </meta>
  <metar>METAR LKPR 230000Z 23009KT 9999 -RA FEW043 12/05 Q1019 NOSIG=</metar>
  <metar>METAR LKPR 230030Z 23010KT 9999 -RA FEW043 12/05 Q1019 NOSIG=</metar>
  <metar>METAR LKPR 230100Z 23012KT 9999 -RA FEW043 11/05 Q1019 NOSIG=</metar>
  <metar>METAR LKPR 230130Z 23007KT 9999 -RA NSC 11/06 Q1018 NOSIG=</metar>
  <metar>METAR LKPR 230200Z 22008KT 9999 -RA NSC 11/06 Q1018 NOSIG=</metar>
  <metar>METAR LKPR 230230Z 23009KT 9999 -RA NSC 11/06 Q1018 NOSIG=</metar>
  <metar>METAR LKPR 230300Z 22009KT CAVOK 10/07 Q1018 NOSIG=</metar>
  <metar>METAR LKPR 230330Z 22007KT CAVOK 10/06 Q1018 NOSIG=</metar>
  <metar>METAR LKPR 230400Z 22007KT CAVOK 10/07 Q1018 NOSIG=</metar>
  <metar>SPECI LKPR 230402Z 21008KT 9999 -RA NSC 10/07 Q1018 RMK REG QNH 1014=</metar>
  <metar>METAR LKPR 230430Z 20005KT CAVOK 10/07 Q1017 NOSIG=</metar>
  <metar>METAR LKPR 230500Z 21006KT CAVOK 11/06 Q1017 NOSIG=</metar>
  <metar>METAR LKPR 230530Z 20006KT CAVOK 11/06 Q1017 NOSIG=</metar>
  <metar>METAR LKPR 230600Z 21008KT CAVOK 11/06 Q1017 NOSIG=</metar>
  <metar>SPECI LKPR 230611Z 21009KT 9999 -RA NSC 11/07 Q1017 RMK REG QNH 1012=</metar>
  <metar>METAR LKPR 230630Z 21009KT CAVOK 11/07 Q1017 NOSIG=</metar>
  <metar>METAR LKPR 230700Z 21008KT CAVOK 12/06 Q1017 NOSIG=</metar>
  <metar>SPECI LKPR 230709Z 21009KT 9999 -RA NSC 12/06 Q1016 RMK REG QNH 1012=</metar>
  <metar>METAR LKPR 230730Z 20008KT CAVOK 12/07 Q1016 NOSIG=</metar>
  <metar>METAR LKPR 230800Z 19007KT CAVOK 12/07 Q1016 NOSIG=</metar>
  <metar>METAR LKPR 230830Z 19008KT CAVOK 13/07 Q1016 NOSIG=</metar>
  <metar>METAR LKPR 230900Z 19011KT 9999 FEW022 12/07 Q1015 NOSIG=</metar>
  <metar>SPECI LKPR 230911Z 19010KT 9999 -RA FEW023 OVC048 12/08 Q1015 RMK REG QNH 1009=</metar>
  <metar>SPECI LKPR 230923Z 18010KT 9999 FEW018 OVC040 12/08 Q1015 RMK REG QNH 1009=</metar>
  <metar>METAR LKPR 230930Z 18010KT 9999 FEW018 OVC037 12/08 Q1015 NOSIG=</metar>
  <metar>METAR LKPR 231000Z 17008KT 9999 FEW015 OVC027 12/09 Q1015 NOSIG=</metar>
  <metar>SPECI LKPR 231007Z 17009KT 130V190 7000 -RA FEW010 OVC030 12/09 Q1015 RMK REG QNH 1009=</metar>
  <metar>METAR LKPR 231030Z 16010KT 6000 -RA SCT008 OVC033 11/10 Q1014 TEMPO 4000 RA BR BKN008=</metar>
  <metar>SPECI LKPR 231040Z 16008KT 9000 -DZ SCT006 OVC022 11/10 Q1014 RMK REG QNH 1009=</metar>
  <metar>SPECI LKPR 231048Z 16008KT 7000 -DZ BKN006 OVC022 11/10 Q1014 RMK REG QNH 1009=</metar>
  <metar>METAR LKPR 231100Z 16008KT 8000 BKN007 OVC022 11/10 Q1014 NOSIG=</metar>
  <metar>SPECI LKPR 231125Z 16008KT 8000 -RA SCT008 OVC021 12/11 Q1013 RMK REG QNH 1009=</metar>
  <metar>METAR LKPR 231130Z 16008KT 8000 -DZRA BKN008 OVC021 12/11 Q1013 NOSIG=</metar>
  <metar>METAR LKPR 231200Z 14008KT 9999 BKN008 OVC021 13/11 Q1012 NOSIG=</metar>
  <metar>SPECI LKPR 231215Z 16008KT 120V190 4000 -RA BR BKN007 OVC021 13/11 Q1011 RMK REG QNH 1006=</metar>
  <metar>METAR LKPR 231230Z 16008KT 6000 -RA BKN007 OVC033 13/11 Q1011 NOSIG=</metar>
  <metar>SPECI LKPR 231235Z 16011KT 2500 -RA BR BKN005 OVC020 13/11 Q1011 RMK REG QNH 1006=</metar>
  <metar>SPECI LKPR 231246Z 16010KT 3500 -RA BR BKN005 OVC020 13/12 Q1010 RMK REG QNH 1006=</metar>
  <metar>METAR LKPR 231300Z 16010KT 7000 -RA BKN005 OVC018 13/12 Q1010 NOSIG=</metar>
  <metar>SPECI LKPR 231305Z 16010KT 9000 BKN005 OVC018 13/12 Q1010 RMK REG QNH 1006=</metar>
  <metar>METAR LKPR 231330Z 16009KT 6000 -DZ BKN005 OVC012 13/12 Q1008 NOSIG=</metar>
  <metar>SPECI LKPR 231340Z 16011KT 7000 -DZ BKN005 OVC013 13/12 Q1008 RMK REG QNH 1003=</metar>
  <metar>METAR LKPR 231400Z 16012KT 8000 -DZ SCT005 OVC013 13/12 Q1007 NOSIG=</metar>
  <metar>SPECI LKPR 231412Z 16012KT 9999 FEW005 OVC015 13/13 Q1007 RMK REG QNH 1003=</metar>
  <metar>METAR LKPR 231430Z 16009KT 9999 FEW007 OVC018 14/13 Q1006 NOSIG=</metar>
  <metar>METAR LKPR 231500Z 17012KT 9999 FEW016 BKN020 15/13 Q1005 NOSIG=</metar>
  <metar>METAR LKPR 231530Z 17012KT 9999 FEW019 BKN026 16/14 Q1004 NOSIG=</metar>
  <metar>METAR LKPR 231600Z 17009KT 9999 FEW018 BKN026 16/14 Q1003 NOSIG=</metar>
  <metar>METAR LKPR 231630Z 16008KT 9999 FEW025 BKN040 17/15 Q1002 NOSIG=</metar>
  <metar>SPECI LKPR 231655Z 17009KT 9999 FEW036 17/15 Q1000 RMK REG QNH 0999=</metar>
  <metar>METAR LKPR 231700Z 17010KT 9999 FEW036 17/15 Q1000 TEMPO 3000 TSRA SCT020CB=</metar>
  <metar>METAR LKPR 231730Z 18009KT 9999 FEW036 18/15 Q1000 TEMPO 24030G45KT 2000 TSRA SCT020CB=</metar>
  <metar>SPECI LKPR 231740Z 19010KT 9999 VCTS FEW025CB 18/15 Q1000 RMK REG QNH 0999=</metar>
  <metar>SPECI LKPR 231743Z 28012G23KT 230V330 9999 -TSRA SCT025CB 18/16 Q1002 RMK REG QNH 0999=</metar>
  <metar>SPECI COR LKPR 231745Z 30017G34KT 230V340 2000 +TSRA SQ SCT020CB 18/16 Q1002 RMK REG QNH 0999=</metar>
  <metar>SPECI LKPR 231747Z 29022G44KT 230V340 2000 +TSRA SQ BKN020CB 17/14 Q1003 RMK REG QNH 0999=</metar>
  <metar>SPECI LKPR 231748Z 27036KT 1200 R24/1300D R30/0450D +TSRA SQ BKN020CB 16/13 Q1003 RMK REG QNH 0999=</metar>
  <metar>SPECI LKPR 231752Z 26028G44KT 3000 R24/P2000U R30/0500D TSRA BKN015CB 14/13 Q1002 RMK REG QNH 0999=</metar>
  <metar>METAR LKPR 231800Z 27019G29KT 240V300 3000 TSRA BKN015CB 14/14 Q1002 NOSIG=</metar>
  <metar>SPECI LKPR 231810Z 28014KT 9999 -TSRA SCT015CB 14/14 Q1002 RMK REG QNH 0999=</metar>
  <metar>SPECI LKPR 231817Z 28011KT 9999 -SHRA VCTS FEW015CB 15/14 Q1001 RMK REG QNH 0999=</metar>
  <metar>METAR LKPR 231830Z 26006KT 240V300 9999 -SHRA VCTS FEW015CB 14/13 Q1001 BECMG NSW=</metar>
  <metar>SPECI LKPR 231831Z 25007KT 9999 SHRA VCTS FEW015CB 15/13 Q1001 RMK REG QNH 0999=</metar>
  <metar>SPECI LKPR 231848Z 21013KT 9999 -RA NSC 14/13 Q1002 RMK REG QNH 0999=</metar>
  <metar>SPECI LKPR 231854Z 20014KT 9000 RA NSC 14/13 Q1002 RMK REG QNH 0999=</metar>
  <metar>METAR LKPR 231900Z 20014KT 170V230 9000 RA NSC 15/13 Q1002 NOSIG=</metar>
  <metar>SPECI LKPR 231907Z 23017KT 9999 -RA FEW048 15/13 Q1001 RMK REG QNH 0999=</metar>
  <metar>METAR LKPR 231930Z 23019KT 9999 -RA FEW048 15/13 Q1002 NOSIG=</metar>
  <metar>METAR LKPR 232000Z 25022KT 9999 FEW030 15/13 Q1003 NOSIG=</metar>
  <metar>SPECI LKPR 232005Z 25021KT 9999 -RA BKN021 15/13 Q1003 RMK REG QNH 0999=</metar>
  <metar>SPECI LKPR 232012Z 26017G27KT 9999 -RA BKN015 15/13 Q1003 RMK REG QNH 0999=</metar>
  <metar>METAR LKPR 232030Z 29020G30KT 9999 SCT014 BKN030 13/10 Q1004 NOSIG=</metar>
  <metar>SPECI LKPR 232039Z 29018G28KT 9999 SCT017 BKN040 12/09 Q1006 RMK REG QNH 0999=</metar>
  <metar>METAR LKPR 232100Z 29021G31KT 9999 SCT017 BKN049 12/09 Q1006 NOSIG=</metar>
</presetWeatherSet>