[Xml]
trafficXmlFile=8
planesXmlFile=C:\Users\Marek Vajgl\Documents\NetBeansProjects\_JAtcSimSolution\JAtcSim\src\resources\settings\planeTypes.xml
areaXmlFile=C:\Users\Marek Vajgl\Documents\NetBeansProjects\_JAtcSimSolution\JAtcSim\src\resources\areas\lkpr.xml

[Recent]
time=18:23
recentICAO=LKPR

[Weather]
metar=METAR LKPR 132130Z 30007KT CAVOK 12/09 Q1000 NOSIG
userChanges=0
useOnline=false

[Traffic]
delayAllowed=false
weightTypeD=3
weightTypeC=8
weightTypeB=6
weightTypeA=1
arrivals2departuresRatio=5
movementsPerHour=10
useXml=false

[Radar]
radar=jatcsim.frmPacks.simple.Pack


