[Xml]
trafficXmlFile=8
planesXmlFile=C:\Users\Marek Vajgl\Documents\NetBeansProjects\_JAtcSimSolution\JAtcSim\src\resources\settings\planeTypes.xml
areaXmlFile=C:\Users\Marek Vajgl\Documents\NetBeansProjects\_JAtcSimSolution\JAtcSim\src\resources\areas\lkpr.xml

[Recent]
time=18:23
recentICAO=LKPR

[Weather]
metar=METAR LKPR 141300Z 32013KT 290V350 9999 FEW043 16/05 Q1005 NOSIG
userChanges=0
useOnline=false

[Traffic]
maxPlanes=15
useExtendedCallsigns=false
delayAllowed=false
weightTypeD=3
weightTypeC=8
weightTypeB=6
weightTypeA=1
arrivals2departuresRatio=5
movementsPerHour=10
useXml=false

[Radar]
refreshRate=3
radar=jatcsim.frmPacks.simple.Pack

[Simulation]
secondLengthInMs=700

