[Xml]
trafficXmlFile=8
planesXmlFile=C:\Users\Marek Vajgl\Documents\NetBeansProjects\_JAtcSimSolution\JAtcSim\src\resources\settings\planeTypes.xml
areaXmlFile=C:\Users\Marek Vajgl\Documents\NetBeansProjects\_JAtcSimSolution\JAtcSim\src\resources\areas\lkpr.xml

[Recent]
time=06:50
recentICAO=LKPR

[Weather]
metar=METAR LKPR 201530Z 26011KT 230V290 CAVOK 20/05 Q1017 NOSIG
userChanges=0
useOnline=false

[Traffic]
maxPlanes=30
useExtendedCallsigns=false
delayAllowed=false
weightTypeD=3
weightTypeC=8
weightTypeB=6
weightTypeA=1
arrivals2departuresRatio=5
movementsPerHour=10
useXml=false

[Radar]
radar=jatcsim.frmPacks.simple.Pack

[Simulation]
secondLengthInMs=500

