[Xml]
trafficXmlFile=8
planesXmlFile=C:\Users\Marek Vajgl\Documents\IdeaProjects\JAtcSimSolution\JAtcSim\resources\settings\planeTypes.xml
areaXmlFile=C:\Users\Marek Vajgl\Documents\IdeaProjects\JAtcSimSolution\JAtcSim\resources\areas\lkpr.xml

[Recent]
time=6:00
recentICAO=LKPR

[Weather]
metar=METAR LKPR 121200Z 00000KT 0050 OVC010 19/11 Q1013
userChanges=0
useOnline=false

[Traffic]
maxPlanes=60
useExtendedCallsigns=false
delayAllowed=false
weightTypeD=3
weightTypeC=8
weightTypeB=6
weightTypeA=1
arrivals2departuresRatio=8
movementsPerHour=10
useXml=false

[Radar]
radar=jatcsim.frmPacks.simple.Pack

[Simulation]
secondLengthInMs=1000




