[Xml]
trafficXmlFile=8
planesXmlFile=C:\Users\Marek Vajgl\Documents\NetBeansProjects\_JAtcSimSolution\JAtcSim\src\resources\settings\planeTypes.xml
areaXmlFile=C:\Users\Marek Vajgl\Documents\NetBeansProjects\_JAtcSimSolution\JAtcSim\src\resources\areas\lkpr.xml

[Recent]
time=12:41
recentICAO=LKMT

[Weather]
metar=METAR LKPR 180930Z 27037KT 9999 -RA BKN028 BKN042 08/04 Q1016 NOSIG
userChanges=0
useOnline=false

[Traffic]
maxPlanes=30
useExtendedCallsigns=false
delayAllowed=false
weightTypeD=3
weightTypeC=8
weightTypeB=6
weightTypeA=1
arrivals2departuresRatio=8
movementsPerHour=10
useXml=false

[Radar]
radar=jatcsim.frmPacks.simple.Pack

[Simulation]
secondLengthInMs=500


