[Xml]
trafficXmlFile=8
planesXmlFile=C:\Users\Marek Vajgl\Documents\IdeaProjects\JAtcSimSolution\JAtcSim\resources\settings\planeTypes.xml
areaXmlFile=C:\Users\Marek Vajgl\Documents\IdeaProjects\JAtcSimSolution\JAtcSim\resources\areas\lkpr.xml

[Recent]
time=6:00
recentICAO=LKPR

[Weather]
metar=METAR LKMT 302100Z 20006KT CAVOK 02/M03 Q1020 NOSIG
userChanges=0
useOnline=false

[Traffic]
maxPlanes=30
useExtendedCallsigns=false
delayAllowed=false
weightTypeD=3
weightTypeC=8
weightTypeB=6
weightTypeA=1
arrivals2departuresRatio=8
movementsPerHour=10
useXml=false

[Radar]
radar=jatcsim.frmPacks.simple.Pack

[Simulation]
secondLengthInMs=1000



